GLOBALSTAR M057         
1 25943U 99058A   25311.16957084 -.00000085  00000+0  71502-4 0  9998
2 25943  51.9993 302.4192 0002432 312.7962  47.2683 12.24828109184452
GLOBALSTAR M059         
1 25944U 99058B   25310.68952993 -.00000057  00000+0  36369-3 0  9999
2 25944  51.9995 181.6561 0000801  78.2407 319.6602 11.99986740591151
GLOBALSTAR M056         
1 25945U 99058C   25310.61550476  .00000045  00000+0  15475-2 0  9993
2 25945  51.9940 180.1648 0001869  87.5084 294.2735 12.04781069179792
GLOBALSTAR M031         
1 25946U 99058D   25310.71325766 -.00000097  00000+0 -62366-4 0  9999
2 25946  51.9969  63.6860 0002150 113.2572  38.3754 12.16042878181880
GLOBALSTAR M039         
1 25961U 99062A   25310.68883764 -.00000048  00000+0  31203-3 0  9994
2 25961  51.9832 194.6809 0002161 324.3892  35.6831 12.62336043198218
GLOBALSTAR M034         
1 25962U 99062B   25310.51291831  .00000006  00000+0  13781-2 0  9998
2 25962  51.9904   1.4213 0013839 310.3778 189.1194 11.79450671155182
GLOBALSTAR M029         
1 25963U 99062C   25310.82129441 -.00000080  00000+0  72995-4 0  9997
2 25963  51.9806  69.2089 0002830  56.3424 109.0241 11.99903193186240
GLOBALSTAR M061         
1 25964U 99062D   25311.00350138 -.00000021  00000+0  97433-3 0  9996
2 25964  51.9764 186.0770 0004890 229.1487 240.3111 11.76777647137997
